0 BREEZE-M R/B
1 31104U 07009C   13286.75895063 -.00000030  00000-0  00000+0 0  9272
2 31104 011.1250 212.6860 5673420 288.0652 326.6859 01.96448678 46747
0 BREEZE-M R/B
1 31104U 07009C   13288.79529374  .00000129  00000-0  00000+0 0  9286
2 31104 011.1251 212.3792 5672967 288.6367 326.8015 01.96448240 46788
0 BREEZE-M R/B
1 31104U 07009C   13290.85972977  .00000216  00000-0  00000+0 0  9295
2 31104 011.1252 212.0700 5672541 289.2137 346.7872 01.96448376 46822
0 BREEZE-M R/B
1 31104U 07009C   13293.30749005  .00000192  00000-0  00000+0 0  9307
2 31104 011.1251 211.7039 5672093 289.8971 277.8726 01.96449271 46878
0 BREEZE-M R/B
1 31104U 07009C   13295.41495126  .00000090  00000-0  00000+0 0  9311
2 31104 011.1251 211.3885 5671695 290.4856 328.3056 01.96450522 46914
